{
    "links": {
        "self": "http://www.neowsapp.com/rest/v1/neo/3799874?api_key=iIulBulltgU6a56xZRHN4H3l9WmuAYTsLGpBGhQ2"
    },
    "id": "3799874",
    "neo_reference_id": "3799874",
    "name": "(2018 ER3)",
    "designation": "2018 ER3",
    "nasa_jpl_url": "http://ssd.jpl.nasa.gov/sbdb.cgi?sstr=3799874",
    "absolute_magnitude_h": 25.6,
    "estimated_diameter": {
        "kilometers": {
            "estimated_diameter_min": 0.0201629919,
            "estimated_diameter_max": 0.0450858206
        },
        "meters": {
            "estimated_diameter_min": 20.1629919443,
            "estimated_diameter_max": 45.0858206172
        },
        "miles": {
            "estimated_diameter_min": 0.0125286985,
            "estimated_diameter_max": 0.0280150214
        },
        "feet": {
            "estimated_diameter_min": 66.1515504905,
            "estimated_diameter_max": 147.9193637137
        }
    },
    "is_potentially_hazardous_asteroid": false,
    "close_approach_data": [
        {
            "close_approach_date": "2018-03-24",
            "close_approach_date_full": "2018-Mar-24 01:10",
            "epoch_date_close_approach": 1521853800000,
            "relative_velocity": {
                "kilometers_per_second": "7.2201826912",
                "kilometers_per_hour": "25992.6576882739",
                "miles_per_hour": "16150.8266619166"
            },
            "miss_distance": {
                "astronomical": "0.0821360713",
                "lunar": "31.9509317357",
                "kilometers": "12287381.316648131",
                "miles": "7635024.7093649678"
            },
            "orbiting_body": "Earth"
        }
    ],
    "orbital_data": {
        "orbit_id": "1",
        "orbit_determination_date": "2018-03-13 16:12:09",
        "first_observation_date": "2018-03-07",
        "last_observation_date": "2018-03-13",
        "data_arc_in_days": 6,
        "observations_used": 8,
        "orbit_uncertainty": "9",
        "minimum_orbit_intersection": ".0787409",
        "jupiter_tisserand_invariant": "3.632",
        "epoch_osculation": "2458185.5",
        "eccentricity": ".4909051986686642",
        "semi_major_axis": "2.045395790193236",
        "inclination": "5.290461657801204",
        "ascending_node_longitude": "147.9662405117046",
        "orbital_period": "1068.475242168382",
        "perihelion_distance": "1.041300363452376",
        "perihelion_argument": "51.768400616274",
        "aphelion_distance": "3.049491216934097",
        "perihelion_time": "2458215.291868359576",
        "mean_anomaly": "349.9622638071784",
        "mean_motion": ".336928724028654",
        "equinox": "J2000",
        "orbit_class": {
            "orbit_class_type": "AMO",
            "orbit_class_description": "Near-Earth asteroid orbits similar to that of 1221 Amor",
            "orbit_class_range": "1.017 AU < q (perihelion) < 1.3 AU"
        }
    },
    "is_sentry_object": false
}